SKYSAT-A                
1 39418U 13066C   26198.81101244  .00001429  00000+0  83912-4 0  9990
2 39418  97.3800 247.2323 0020703 203.9624 156.0646 15.13122952693114
SKYSAT-B                
1 40072U 14037D   26198.85478173  .00000585  00000+0  70239-4 0  9999
2 40072  98.3855 159.5727 0005780 164.7180 195.4211 14.88095356650526
SKYSAT-C1               
1 41601U 16040C   26198.04294710  .00005058  00000+0  14290-3 0  9992
2 41601  96.9547 228.1510 0000261 236.3178 123.8043 15.36766876562450
SKYSAT-C4               
1 41771U 16058B   26198.04736832  .00009969  00000+0  18273-3 0  9995
2 41771  96.9161 218.5856 0003478 114.9854 245.1760 15.49475207550091
SKYSAT-C5               
1 41772U 16058C   26198.10333753  .00003812  00000+0  11912-3 0  9992
2 41772  97.0451 237.4000 0002753 155.5860 204.5514 15.33734076548335
SKYSAT-C2               
1 41773U 16058D   26198.29708365  .00006528  00000+0  15146-3 0  9998
2 41773  97.0158 219.2705 0001114 343.1238  16.9973 15.42708898549691
SKYSAT-C3               
1 41774U 16058E   26198.03754474  .00014444  00000+0  22667-3 0  9995
2 41774  96.8991 227.7582 0002623 130.7873 229.3610 15.53761650550745
SKYSAT-C11              
1 42987U 17068A   26198.93692861  .00017166  00000+0  21849-3 0  9999
2 42987  97.4388 349.1483 0001289 155.4215 204.7103 15.59422768488035
SKYSAT-C10              
1 42988U 17068B   26198.93301374  .00005959  00000+0  17711-3 0  9996
2 42988  97.4547 336.0968 0001524 111.3925 248.7481 15.35149496487075
SKYSAT-C9               
1 42989U 17068C   26198.93471131  .00007151  00000+0  16826-3 0  9998
2 42989  97.4467 337.3319 0008411  35.9309 324.2502 15.42254918487494
SKYSAT-C8               
1 42990U 17068D   26198.92216577  .00005875  00000+0  16192-3 0  9997
2 42990  97.4564 336.0041 0001239 103.5918 256.5464 15.37523384487035
SKYSAT-C7               
1 42991U 17068E   26198.91673559  .00005655  00000+0  15614-3 0  9998
2 42991  97.4575 336.9903 0005505  11.9593 348.1781 15.37473008487098
SKYSAT-C6               
1 42992U 17068F   26198.86718076  .00005065  00000+0  15546-3 0  9996
2 42992  97.4612 336.7817 0005052  82.8828 277.2989 15.34196805487027
SKYSAT-C12              
1 43797U 18099AR  26198.64290680  .00009601  00000+0  17379-3 0  9993
2 43797  96.9253 220.6728 0005161  64.6404 295.5383 15.49838144426576
