{"fetched_at":"2026-07-18T06:27:47.409Z","source":"https://celestrak.org/NORAD/elements/gp.php?GROUP=planet&FORMAT=JSON","constellation":"skysat","records":[{"OBJECT_NAME":"SKYSAT-A","OBJECT_ID":"2013-066C","EPOCH":"2026-07-17T19:27:51.474816","CLASSIFICATION_TYPE":"U","MEAN_MOTION":15.13122952,"ECCENTRICITY":0.00207036,"INCLINATION":97.38,"RA_OF_ASC_NODE":247.2323,"ARG_OF_PERICENTER":203.9624,"MEAN_ANOMALY":156.0646,"EPHEMERIS_TYPE":0,"NORAD_CAT_ID":39418,"ELEMENT_SET_NO":999,"REV_AT_EPOCH":69311,"BSTAR":0.000083912493,"MEAN_MOTION_DOT":0.00001429,"MEAN_MOTION_DDOT":0},{"OBJECT_NAME":"SKYSAT-B","OBJECT_ID":"2014-037D","EPOCH":"2026-07-17T20:30:53.141472","CLASSIFICATION_TYPE":"U","MEAN_MOTION":14.88095356,"ECCENTRICITY":0.00057801,"INCLINATION":98.3855,"RA_OF_ASC_NODE":159.5727,"ARG_OF_PERICENTER":164.718,"MEAN_ANOMALY":195.4211,"EPHEMERIS_TYPE":0,"NORAD_CAT_ID":40072,"ELEMENT_SET_NO":999,"REV_AT_EPOCH":65052,"BSTAR":0.000070239127,"MEAN_MOTION_DOT":0.00000585,"MEAN_MOTION_DDOT":0},{"OBJECT_NAME":"SKYSAT-C1","OBJECT_ID":"2016-040C","EPOCH":"2026-07-17T01:01:50.629440","CLASSIFICATION_TYPE":"U","MEAN_MOTION":15.36766876,"ECCENTRICITY":0.00002619,"INCLINATION":96.9547,"RA_OF_ASC_NODE":228.151,"ARG_OF_PERICENTER":236.3178,"MEAN_ANOMALY":123.8043,"EPHEMERIS_TYPE":0,"NORAD_CAT_ID":41601,"ELEMENT_SET_NO":999,"REV_AT_EPOCH":56245,"BSTAR":0.00014289609,"MEAN_MOTION_DOT":0.00005058,"MEAN_MOTION_DDOT":0},{"OBJECT_NAME":"SKYSAT-C4","OBJECT_ID":"2016-058B","EPOCH":"2026-07-17T01:08:12.622848","CLASSIFICATION_TYPE":"U","MEAN_MOTION":15.49475207,"ECCENTRICITY":0.0003478,"INCLINATION":96.9161,"RA_OF_ASC_NODE":218.5856,"ARG_OF_PERICENTER":114.9854,"MEAN_ANOMALY":245.176,"EPHEMERIS_TYPE":0,"NORAD_CAT_ID":41771,"ELEMENT_SET_NO":999,"REV_AT_EPOCH":55009,"BSTAR":0.00018273,"MEAN_MOTION_DOT":0.00009969,"MEAN_MOTION_DDOT":0},{"OBJECT_NAME":"SKYSAT-C5","OBJECT_ID":"2016-058C","EPOCH":"2026-07-17T02:28:48.362592","CLASSIFICATION_TYPE":"U","MEAN_MOTION":15.33734076,"ECCENTRICITY":0.0002753,"INCLINATION":97.0451,"RA_OF_ASC_NODE":237.4,"ARG_OF_PERICENTER":155.586,"MEAN_ANOMALY":204.5514,"EPHEMERIS_TYPE":0,"NORAD_CAT_ID":41772,"ELEMENT_SET_NO":999,"REV_AT_EPOCH":54833,"BSTAR":0.00011912,"MEAN_MOTION_DOT":0.00003812,"MEAN_MOTION_DDOT":0},{"OBJECT_NAME":"SKYSAT-C2","OBJECT_ID":"2016-058D","EPOCH":"2026-07-17T07:07:48.027360","CLASSIFICATION_TYPE":"U","MEAN_MOTION":15.42708898,"ECCENTRICITY":0.0001114,"INCLINATION":97.0158,"RA_OF_ASC_NODE":219.2705,"ARG_OF_PERICENTER":343.1238,"MEAN_ANOMALY":16.9973,"EPHEMERIS_TYPE":0,"NORAD_CAT_ID":41773,"ELEMENT_SET_NO":999,"REV_AT_EPOCH":54969,"BSTAR":0.00015146,"MEAN_MOTION_DOT":0.00006528,"MEAN_MOTION_DDOT":0},{"OBJECT_NAME":"SKYSAT-C3","OBJECT_ID":"2016-058E","EPOCH":"2026-07-17T00:54:03.865536","CLASSIFICATION_TYPE":"U","MEAN_MOTION":15.5376165,"ECCENTRICITY":0.00026234,"INCLINATION":96.8991,"RA_OF_ASC_NODE":227.7582,"ARG_OF_PERICENTER":130.7873,"MEAN_ANOMALY":229.361,"EPHEMERIS_TYPE":0,"NORAD_CAT_ID":41774,"ELEMENT_SET_NO":999,"REV_AT_EPOCH":55074,"BSTAR":0.0002266722,"MEAN_MOTION_DOT":0.00014444,"MEAN_MOTION_DDOT":0},{"OBJECT_NAME":"SKYSAT-C11","OBJECT_ID":"2017-068A","EPOCH":"2026-07-17T22:29:10.631904","CLASSIFICATION_TYPE":"U","MEAN_MOTION":15.59422768,"ECCENTRICITY":0.00012891,"INCLINATION":97.4388,"RA_OF_ASC_NODE":349.1483,"ARG_OF_PERICENTER":155.4215,"MEAN_ANOMALY":204.7103,"EPHEMERIS_TYPE":0,"NORAD_CAT_ID":42987,"ELEMENT_SET_NO":999,"REV_AT_EPOCH":48803,"BSTAR":0.00021849398,"MEAN_MOTION_DOT":0.00017166,"MEAN_MOTION_DDOT":0},{"OBJECT_NAME":"SKYSAT-C10","OBJECT_ID":"2017-068B","EPOCH":"2026-07-17T22:23:32.387136","CLASSIFICATION_TYPE":"U","MEAN_MOTION":15.35149496,"ECCENTRICITY":0.00015248,"INCLINATION":97.4547,"RA_OF_ASC_NODE":336.0968,"ARG_OF_PERICENTER":111.3925,"MEAN_ANOMALY":248.7481,"EPHEMERIS_TYPE":0,"NORAD_CAT_ID":42988,"ELEMENT_SET_NO":999,"REV_AT_EPOCH":48707,"BSTAR":0.00017711027,"MEAN_MOTION_DOT":0.00005959,"MEAN_MOTION_DDOT":0},{"OBJECT_NAME":"SKYSAT-C9","OBJECT_ID":"2017-068C","EPOCH":"2026-07-17T22:25:59.057184","CLASSIFICATION_TYPE":"U","MEAN_MOTION":15.42254918,"ECCENTRICITY":0.00084118,"INCLINATION":97.4467,"RA_OF_ASC_NODE":337.3319,"ARG_OF_PERICENTER":35.9309,"MEAN_ANOMALY":324.2502,"EPHEMERIS_TYPE":0,"NORAD_CAT_ID":42989,"ELEMENT_SET_NO":999,"REV_AT_EPOCH":48749,"BSTAR":0.00016825571,"MEAN_MOTION_DOT":0.00007151,"MEAN_MOTION_DDOT":0},{"OBJECT_NAME":"SKYSAT-C8","OBJECT_ID":"2017-068D","EPOCH":"2026-07-17T22:07:55.122528","CLASSIFICATION_TYPE":"U","MEAN_MOTION":15.37523384,"ECCENTRICITY":0.00012391,"INCLINATION":97.4564,"RA_OF_ASC_NODE":336.0041,"ARG_OF_PERICENTER":103.5918,"MEAN_ANOMALY":256.5464,"EPHEMERIS_TYPE":0,"NORAD_CAT_ID":42990,"ELEMENT_SET_NO":999,"REV_AT_EPOCH":48703,"BSTAR":0.0001619242,"MEAN_MOTION_DOT":0.00005875,"MEAN_MOTION_DDOT":0},{"OBJECT_NAME":"SKYSAT-C7","OBJECT_ID":"2017-068E","EPOCH":"2026-07-17T22:00:05.954976","CLASSIFICATION_TYPE":"U","MEAN_MOTION":15.37473008,"ECCENTRICITY":0.00055053,"INCLINATION":97.4575,"RA_OF_ASC_NODE":336.9903,"ARG_OF_PERICENTER":11.9593,"MEAN_ANOMALY":348.1781,"EPHEMERIS_TYPE":0,"NORAD_CAT_ID":42991,"ELEMENT_SET_NO":999,"REV_AT_EPOCH":48709,"BSTAR":0.00015614452,"MEAN_MOTION_DOT":0.00005655,"MEAN_MOTION_DDOT":0},{"OBJECT_NAME":"SKYSAT-C6","OBJECT_ID":"2017-068F","EPOCH":"2026-07-17T20:48:44.417664","CLASSIFICATION_TYPE":"U","MEAN_MOTION":15.34196805,"ECCENTRICITY":0.00050529,"INCLINATION":97.4612,"RA_OF_ASC_NODE":336.7817,"ARG_OF_PERICENTER":82.8828,"MEAN_ANOMALY":277.2989,"EPHEMERIS_TYPE":0,"NORAD_CAT_ID":42992,"ELEMENT_SET_NO":999,"REV_AT_EPOCH":48702,"BSTAR":0.00015546302,"MEAN_MOTION_DOT":0.00005065,"MEAN_MOTION_DDOT":0},{"OBJECT_NAME":"SKYSAT-C12","OBJECT_ID":"2018-099AR","EPOCH":"2026-07-17T15:25:47.147520","CLASSIFICATION_TYPE":"U","MEAN_MOTION":15.49838144,"ECCENTRICITY":0.00051615,"INCLINATION":96.9253,"RA_OF_ASC_NODE":220.6728,"ARG_OF_PERICENTER":64.6404,"MEAN_ANOMALY":295.5383,"EPHEMERIS_TYPE":0,"NORAD_CAT_ID":43797,"ELEMENT_SET_NO":999,"REV_AT_EPOCH":42657,"BSTAR":0.00017379288,"MEAN_MOTION_DOT":0.00009601,"MEAN_MOTION_DDOT":0}]}
